[
    {
        "zip_code": 500,
        "city_zh": "彰化縣",
        "district_zh": "彰化市",
        "city_en": "Changhua County",
        "district_en": "Changhua City"
    },
    {
        "zip_code": 502,
        "city_zh": "彰化縣",
        "district_zh": "芬園鄉",
        "city_en": "Changhua County",
        "district_en": "Fenyuan Township"
    },
    {
        "zip_code": 503,
        "city_zh": "彰化縣",
        "district_zh": "花壇鄉",
        "city_en": "Changhua County",
        "district_en": "Huatan Township"
    },
    {
        "zip_code": 504,
        "city_zh": "彰化縣",
        "district_zh": "秀水鄉",
        "city_en": "Changhua County",
        "district_en": "Xiushui Township"
    },
    {
        "zip_code": 505,
        "city_zh": "彰化縣",
        "district_zh": "鹿港鎮",
        "city_en": "Changhua County",
        "district_en": "Lukang Township"
    },
    {
        "zip_code": 506,
        "city_zh": "彰化縣",
        "district_zh": "福興鄉",
        "city_en": "Changhua County",
        "district_en": "Fuxing Township"
    },
    {
        "zip_code": 507,
        "city_zh": "彰化縣",
        "district_zh": "線西鄉",
        "city_en": "Changhua County",
        "district_en": "Xianxi Township"
    },
    {
        "zip_code": 508,
        "city_zh": "彰化縣",
        "district_zh": "和美鎮",
        "city_en": "Changhua County",
        "district_en": "Hemei Township"
    },
    {
        "zip_code": 509,
        "city_zh": "彰化縣",
        "district_zh": "伸港鄉",
        "city_en": "Changhua County",
        "district_en": "Shengang Township"
    },
    {
        "zip_code": 510,
        "city_zh": "彰化縣",
        "district_zh": "員林市",
        "city_en": "Changhua County",
        "district_en": "Yuanlin City"
    },
    {
        "zip_code": 511,
        "city_zh": "彰化縣",
        "district_zh": "社頭鄉",
        "city_en": "Changhua County",
        "district_en": "Shetou Township"
    },
    {
        "zip_code": 512,
        "city_zh": "彰化縣",
        "district_zh": "永靖鄉",
        "city_en": "Changhua County",
        "district_en": "Yongjing Township"
    },
    {
        "zip_code": 513,
        "city_zh": "彰化縣",
        "district_zh": "埔心鄉",
        "city_en": "Changhua County",
        "district_en": "Puxin Township"
    },
    {
        "zip_code": 514,
        "city_zh": "彰化縣",
        "district_zh": "溪湖鎮",
        "city_en": "Changhua County",
        "district_en": "Xihu Township"
    },
    {
        "zip_code": 515,
        "city_zh": "彰化縣",
        "district_zh": "大村鄉",
        "city_en": "Changhua County",
        "district_en": "Dacun Township"
    },
    {
        "zip_code": 516,
        "city_zh": "彰化縣",
        "district_zh": "埔鹽鄉",
        "city_en": "Changhua County",
        "district_en": "Puyan Township"
    },
    {
        "zip_code": 520,
        "city_zh": "彰化縣",
        "district_zh": "田中鎮",
        "city_en": "Changhua County",
        "district_en": "Tianzhong Township"
    },
    {
        "zip_code": 521,
        "city_zh": "彰化縣",
        "district_zh": "北斗鎮",
        "city_en": "Changhua County",
        "district_en": "Beidou Township"
    },
    {
        "zip_code": 522,
        "city_zh": "彰化縣",
        "district_zh": "田尾鄉",
        "city_en": "Changhua County",
        "district_en": "Tianwei Township"
    },
    {
        "zip_code": 523,
        "city_zh": "彰化縣",
        "district_zh": "埤頭鄉",
        "city_en": "Changhua County",
        "district_en": "Pitou Township"
    },
    {
        "zip_code": 524,
        "city_zh": "彰化縣",
        "district_zh": "溪州鄉",
        "city_en": "Changhua County",
        "district_en": "Xizhou Township"
    },
    {
        "zip_code": 525,
        "city_zh": "彰化縣",
        "district_zh": "竹塘鄉",
        "city_en": "Changhua County",
        "district_en": "Zhutang Township"
    },
    {
        "zip_code": 526,
        "city_zh": "彰化縣",
        "district_zh": "二林鎮",
        "city_en": "Changhua County",
        "district_en": "Erlin Township"
    },
    {
        "zip_code": 527,
        "city_zh": "彰化縣",
        "district_zh": "大城鄉",
        "city_en": "Changhua County",
        "district_en": "Dacheng Township"
    },
    {
        "zip_code": 528,
        "city_zh": "彰化縣",
        "district_zh": "芳苑鄉",
        "city_en": "Changhua County",
        "district_en": "Fangyuan Township"
    },
    {
        "zip_code": 530,
        "city_zh": "彰化縣",
        "district_zh": "二水鄉",
        "city_en": "Changhua County",
        "district_en": "Ershui Township"
    }
]