[
    {
        "zip_code": 602,
        "city_zh": "嘉義縣",
        "district_zh": "番路鄉",
        "city_en": "Chiayi County",
        "district_en": "Fanlu Township"
    },
    {
        "zip_code": 603,
        "city_zh": "嘉義縣",
        "district_zh": "梅山鄉",
        "city_en": "Chiayi County",
        "district_en": "Meishan Township"
    },
    {
        "zip_code": 604,
        "city_zh": "嘉義縣",
        "district_zh": "竹崎鄉",
        "city_en": "Chiayi County",
        "district_en": "Zhuqi Township"
    },
    {
        "zip_code": 605,
        "city_zh": "嘉義縣",
        "district_zh": "阿里山鄉",
        "city_en": "Chiayi County",
        "district_en": "Alishan Township"
    },
    {
        "zip_code": 606,
        "city_zh": "嘉義縣",
        "district_zh": "中埔鄉",
        "city_en": "Chiayi County",
        "district_en": "Zhongpu Township"
    },
    {
        "zip_code": 607,
        "city_zh": "嘉義縣",
        "district_zh": "大埔鄉",
        "city_en": "Chiayi County",
        "district_en": "Dapu Township"
    },
    {
        "zip_code": 608,
        "city_zh": "嘉義縣",
        "district_zh": "水上鄉",
        "city_en": "Chiayi County",
        "district_en": "Shuishang Township"
    },
    {
        "zip_code": 611,
        "city_zh": "嘉義縣",
        "district_zh": "鹿草鄉",
        "city_en": "Chiayi County",
        "district_en": "Lucao Township"
    },
    {
        "zip_code": 612,
        "city_zh": "嘉義縣",
        "district_zh": "太保市",
        "city_en": "Chiayi County",
        "district_en": "Taibao City"
    },
    {
        "zip_code": 613,
        "city_zh": "嘉義縣",
        "district_zh": "朴子市",
        "city_en": "Chiayi County",
        "district_en": "Puzi City"
    },
    {
        "zip_code": 614,
        "city_zh": "嘉義縣",
        "district_zh": "東石鄉",
        "city_en": "Chiayi County",
        "district_en": "Dongshi Township"
    },
    {
        "zip_code": 615,
        "city_zh": "嘉義縣",
        "district_zh": "六腳鄉",
        "city_en": "Chiayi County",
        "district_en": "Liujiao Township"
    },
    {
        "zip_code": 616,
        "city_zh": "嘉義縣",
        "district_zh": "新港鄉",
        "city_en": "Chiayi County",
        "district_en": "Xingang Township"
    },
    {
        "zip_code": 621,
        "city_zh": "嘉義縣",
        "district_zh": "民雄鄉",
        "city_en": "Chiayi County",
        "district_en": "Minxiong Township"
    },
    {
        "zip_code": 622,
        "city_zh": "嘉義縣",
        "district_zh": "大林鎮",
        "city_en": "Chiayi County",
        "district_en": "Dalin Township"
    },
    {
        "zip_code": 623,
        "city_zh": "嘉義縣",
        "district_zh": "溪口鄉",
        "city_en": "Chiayi County",
        "district_en": "Xikou Township"
    },
    {
        "zip_code": 624,
        "city_zh": "嘉義縣",
        "district_zh": "義竹鄉",
        "city_en": "Chiayi County",
        "district_en": "Yizhu Township"
    },
    {
        "zip_code": 625,
        "city_zh": "嘉義縣",
        "district_zh": "布袋鎮",
        "city_en": "Chiayi County",
        "district_en": "Budai Township"
    }
]