[
    {
        "zip_code": 350,
        "city_zh": "苗栗縣",
        "district_zh": "竹南鎮",
        "city_en": "Miaoli County",
        "district_en": "Zhunan Township"
    },
    {
        "zip_code": 351,
        "city_zh": "苗栗縣",
        "district_zh": "頭份市",
        "city_en": "Miaoli County",
        "district_en": "Toufen City"
    },
    {
        "zip_code": 352,
        "city_zh": "苗栗縣",
        "district_zh": "三灣鄉",
        "city_en": "Miaoli County",
        "district_en": "Sanwan Township"
    },
    {
        "zip_code": 353,
        "city_zh": "苗栗縣",
        "district_zh": "南庄鄉",
        "city_en": "Miaoli County",
        "district_en": "Nanzhuang Township"
    },
    {
        "zip_code": 354,
        "city_zh": "苗栗縣",
        "district_zh": "獅潭鄉",
        "city_en": "Miaoli County",
        "district_en": "Shitan Township"
    },
    {
        "zip_code": 356,
        "city_zh": "苗栗縣",
        "district_zh": "後龍鎮",
        "city_en": "Miaoli County",
        "district_en": "Houlong Township"
    },
    {
        "zip_code": 357,
        "city_zh": "苗栗縣",
        "district_zh": "通霄鎮",
        "city_en": "Miaoli County",
        "district_en": "Tongxiao Township"
    },
    {
        "zip_code": 358,
        "city_zh": "苗栗縣",
        "district_zh": "苑裡鎮",
        "city_en": "Miaoli County",
        "district_en": "Yuanli Township"
    },
    {
        "zip_code": 360,
        "city_zh": "苗栗縣",
        "district_zh": "苗栗市",
        "city_en": "Miaoli County",
        "district_en": "Miaoli City"
    },
    {
        "zip_code": 361,
        "city_zh": "苗栗縣",
        "district_zh": "造橋鄉",
        "city_en": "Miaoli County",
        "district_en": "Zaoqiao Township"
    },
    {
        "zip_code": 362,
        "city_zh": "苗栗縣",
        "district_zh": "頭屋鄉",
        "city_en": "Miaoli County",
        "district_en": "Touwu Township"
    },
    {
        "zip_code": 363,
        "city_zh": "苗栗縣",
        "district_zh": "公館鄉",
        "city_en": "Miaoli County",
        "district_en": "Gongguan Township"
    },
    {
        "zip_code": 364,
        "city_zh": "苗栗縣",
        "district_zh": "大湖鄉",
        "city_en": "Miaoli County",
        "district_en": "Dahu Township"
    },
    {
        "zip_code": 365,
        "city_zh": "苗栗縣",
        "district_zh": "泰安鄉",
        "city_en": "Miaoli County",
        "district_en": "Tai’an Township"
    },
    {
        "zip_code": 366,
        "city_zh": "苗栗縣",
        "district_zh": "銅鑼鄉",
        "city_en": "Miaoli County",
        "district_en": "Tongluo Township"
    },
    {
        "zip_code": 367,
        "city_zh": "苗栗縣",
        "district_zh": "三義鄉",
        "city_en": "Miaoli County",
        "district_en": "Sanyi Township"
    },
    {
        "zip_code": 368,
        "city_zh": "苗栗縣",
        "district_zh": "西湖鄉",
        "city_en": "Miaoli County",
        "district_en": "Xihu Township"
    },
    {
        "zip_code": 369,
        "city_zh": "苗栗縣",
        "district_zh": "卓蘭鎮",
        "city_en": "Miaoli County",
        "district_en": "Zhuolan Township"
    }
]