[
    {
        "zip_code": 207,
        "city_zh": "新北市",
        "district_zh": "萬里區",
        "city_en": "New Taipei City",
        "district_en": "Wanli Dist."
    },
    {
        "zip_code": 208,
        "city_zh": "新北市",
        "district_zh": "金山區",
        "city_en": "New Taipei City",
        "district_en": "Jinshan Dist."
    },
    {
        "zip_code": 220,
        "city_zh": "新北市",
        "district_zh": "板橋區",
        "city_en": "New Taipei City",
        "district_en": "Banqiao Dist."
    },
    {
        "zip_code": 221,
        "city_zh": "新北市",
        "district_zh": "汐止區",
        "city_en": "New Taipei City",
        "district_en": "Xizhi Dist."
    },
    {
        "zip_code": 222,
        "city_zh": "新北市",
        "district_zh": "深坑區",
        "city_en": "New Taipei City",
        "district_en": "Shenkeng Dist."
    },
    {
        "zip_code": 223,
        "city_zh": "新北市",
        "district_zh": "石碇區",
        "city_en": "New Taipei City",
        "district_en": "Shiding Dist."
    },
    {
        "zip_code": 224,
        "city_zh": "新北市",
        "district_zh": "瑞芳區",
        "city_en": "New Taipei City",
        "district_en": "Ruifang Dist."
    },
    {
        "zip_code": 226,
        "city_zh": "新北市",
        "district_zh": "平溪區",
        "city_en": "New Taipei City",
        "district_en": "Pingxi Dist."
    },
    {
        "zip_code": 227,
        "city_zh": "新北市",
        "district_zh": "雙溪區",
        "city_en": "New Taipei City",
        "district_en": "Shuangxi Dist."
    },
    {
        "zip_code": 228,
        "city_zh": "新北市",
        "district_zh": "貢寮區",
        "city_en": "New Taipei City",
        "district_en": "Gongliao Dist."
    },
    {
        "zip_code": 231,
        "city_zh": "新北市",
        "district_zh": "新店區",
        "city_en": "New Taipei City",
        "district_en": "Xindian Dist."
    },
    {
        "zip_code": 232,
        "city_zh": "新北市",
        "district_zh": "坪林區",
        "city_en": "New Taipei City",
        "district_en": "Pinglin Dist."
    },
    {
        "zip_code": 233,
        "city_zh": "新北市",
        "district_zh": "烏來區",
        "city_en": "New Taipei City",
        "district_en": "Wulai Dist."
    },
    {
        "zip_code": 234,
        "city_zh": "新北市",
        "district_zh": "永和區",
        "city_en": "New Taipei City",
        "district_en": "Yonghe Dist."
    },
    {
        "zip_code": 235,
        "city_zh": "新北市",
        "district_zh": "中和區",
        "city_en": "New Taipei City",
        "district_en": "Zhonghe Dist."
    },
    {
        "zip_code": 236,
        "city_zh": "新北市",
        "district_zh": "土城區",
        "city_en": "New Taipei City",
        "district_en": "Tucheng Dist."
    },
    {
        "zip_code": 237,
        "city_zh": "新北市",
        "district_zh": "三峽區",
        "city_en": "New Taipei City",
        "district_en": "Sanxia Dist."
    },
    {
        "zip_code": 238,
        "city_zh": "新北市",
        "district_zh": "樹林區",
        "city_en": "New Taipei City",
        "district_en": "Shulin Dist."
    },
    {
        "zip_code": 239,
        "city_zh": "新北市",
        "district_zh": "鶯歌區",
        "city_en": "New Taipei City",
        "district_en": "Yingge Dist."
    },
    {
        "zip_code": 241,
        "city_zh": "新北市",
        "district_zh": "三重區",
        "city_en": "New Taipei City",
        "district_en": "Sanchong Dist."
    },
    {
        "zip_code": 242,
        "city_zh": "新北市",
        "district_zh": "新莊區",
        "city_en": "New Taipei City",
        "district_en": "Xinzhuang Dist."
    },
    {
        "zip_code": 243,
        "city_zh": "新北市",
        "district_zh": "泰山區",
        "city_en": "New Taipei City",
        "district_en": "Taishan Dist."
    },
    {
        "zip_code": 244,
        "city_zh": "新北市",
        "district_zh": "林口區",
        "city_en": "New Taipei City",
        "district_en": "Linkou Dist."
    },
    {
        "zip_code": 247,
        "city_zh": "新北市",
        "district_zh": "蘆洲區",
        "city_en": "New Taipei City",
        "district_en": "Luzhou Dist."
    },
    {
        "zip_code": 248,
        "city_zh": "新北市",
        "district_zh": "五股區",
        "city_en": "New Taipei City",
        "district_en": "Wugu Dist."
    },
    {
        "zip_code": 249,
        "city_zh": "新北市",
        "district_zh": "八里區",
        "city_en": "New Taipei City",
        "district_en": "Bali Dist."
    },
    {
        "zip_code": 251,
        "city_zh": "新北市",
        "district_zh": "淡水區",
        "city_en": "New Taipei City",
        "district_en": "Tamsui Dist."
    },
    {
        "zip_code": 252,
        "city_zh": "新北市",
        "district_zh": "三芝區",
        "city_en": "New Taipei City",
        "district_en": "Sanzhi Dist."
    },
    {
        "zip_code": 253,
        "city_zh": "新北市",
        "district_zh": "石門區",
        "city_en": "New Taipei City",
        "district_en": "Shimen Dist."
    }
]