[
    {
        "zip_code": 900,
        "city_zh": "屏東縣",
        "district_zh": "屏東市",
        "city_en": "Pingtung County",
        "district_en": "Pingtung City"
    },
    {
        "zip_code": 901,
        "city_zh": "屏東縣",
        "district_zh": "三地門鄉",
        "city_en": "Pingtung County",
        "district_en": "Sandimen Township"
    },
    {
        "zip_code": 902,
        "city_zh": "屏東縣",
        "district_zh": "霧臺鄉",
        "city_en": "Pingtung County",
        "district_en": "Wutai Township"
    },
    {
        "zip_code": 903,
        "city_zh": "屏東縣",
        "district_zh": "瑪家鄉",
        "city_en": "Pingtung County",
        "district_en": "Majia Township"
    },
    {
        "zip_code": 904,
        "city_zh": "屏東縣",
        "district_zh": "九如鄉",
        "city_en": "Pingtung County",
        "district_en": "Jiuru Township"
    },
    {
        "zip_code": 905,
        "city_zh": "屏東縣",
        "district_zh": "里港鄉",
        "city_en": "Pingtung County",
        "district_en": "Ligang Township"
    },
    {
        "zip_code": 906,
        "city_zh": "屏東縣",
        "district_zh": "高樹鄉",
        "city_en": "Pingtung County",
        "district_en": "Gaoshu Township"
    },
    {
        "zip_code": 907,
        "city_zh": "屏東縣",
        "district_zh": "鹽埔鄉",
        "city_en": "Pingtung County",
        "district_en": "Yanpu Township"
    },
    {
        "zip_code": 908,
        "city_zh": "屏東縣",
        "district_zh": "長治鄉",
        "city_en": "Pingtung County",
        "district_en": "Changzhi Township"
    },
    {
        "zip_code": 909,
        "city_zh": "屏東縣",
        "district_zh": "麟洛鄉",
        "city_en": "Pingtung County",
        "district_en": "Linluo Township"
    },
    {
        "zip_code": 911,
        "city_zh": "屏東縣",
        "district_zh": "竹田鄉",
        "city_en": "Pingtung County",
        "district_en": "Zhutian Township"
    },
    {
        "zip_code": 912,
        "city_zh": "屏東縣",
        "district_zh": "內埔鄉",
        "city_en": "Pingtung County",
        "district_en": "Neipu Township"
    },
    {
        "zip_code": 913,
        "city_zh": "屏東縣",
        "district_zh": "萬丹鄉",
        "city_en": "Pingtung County",
        "district_en": "Wandan Township"
    },
    {
        "zip_code": 920,
        "city_zh": "屏東縣",
        "district_zh": "潮州鎮",
        "city_en": "Pingtung County",
        "district_en": "Chaozhou Township"
    },
    {
        "zip_code": 921,
        "city_zh": "屏東縣",
        "district_zh": "泰武鄉",
        "city_en": "Pingtung County",
        "district_en": "Taiwu Township"
    },
    {
        "zip_code": 922,
        "city_zh": "屏東縣",
        "district_zh": "來義鄉",
        "city_en": "Pingtung County",
        "district_en": "Laiyi Township"
    },
    {
        "zip_code": 923,
        "city_zh": "屏東縣",
        "district_zh": "萬巒鄉",
        "city_en": "Pingtung County",
        "district_en": "Wanluan Township"
    },
    {
        "zip_code": 924,
        "city_zh": "屏東縣",
        "district_zh": "崁頂鄉",
        "city_en": "Pingtung County",
        "district_en": "Kanding Township"
    },
    {
        "zip_code": 925,
        "city_zh": "屏東縣",
        "district_zh": "新埤鄉",
        "city_en": "Pingtung County",
        "district_en": "Xinpi Township"
    },
    {
        "zip_code": 926,
        "city_zh": "屏東縣",
        "district_zh": "南州鄉",
        "city_en": "Pingtung County",
        "district_en": "Nanzhou Township"
    },
    {
        "zip_code": 927,
        "city_zh": "屏東縣",
        "district_zh": "林邊鄉",
        "city_en": "Pingtung County",
        "district_en": "Linbian Township"
    },
    {
        "zip_code": 928,
        "city_zh": "屏東縣",
        "district_zh": "東港鎮",
        "city_en": "Pingtung County",
        "district_en": "Donggang Township"
    },
    {
        "zip_code": 929,
        "city_zh": "屏東縣",
        "district_zh": "琉球鄉",
        "city_en": "Pingtung County",
        "district_en": "Liuqiu Township"
    },
    {
        "zip_code": 931,
        "city_zh": "屏東縣",
        "district_zh": "佳冬鄉",
        "city_en": "Pingtung County",
        "district_en": "Jiadong Township"
    },
    {
        "zip_code": 932,
        "city_zh": "屏東縣",
        "district_zh": "新園鄉",
        "city_en": "Pingtung County",
        "district_en": "Xinyuan Township"
    },
    {
        "zip_code": 940,
        "city_zh": "屏東縣",
        "district_zh": "枋寮鄉",
        "city_en": "Pingtung County",
        "district_en": "Fangliao Township"
    },
    {
        "zip_code": 941,
        "city_zh": "屏東縣",
        "district_zh": "枋山鄉",
        "city_en": "Pingtung County",
        "district_en": "Fangshan Township"
    },
    {
        "zip_code": 942,
        "city_zh": "屏東縣",
        "district_zh": "春日鄉",
        "city_en": "Pingtung County",
        "district_en": "Chunri Township"
    },
    {
        "zip_code": 943,
        "city_zh": "屏東縣",
        "district_zh": "獅子鄉",
        "city_en": "Pingtung County",
        "district_en": "Shizi Township"
    },
    {
        "zip_code": 944,
        "city_zh": "屏東縣",
        "district_zh": "車城鄉",
        "city_en": "Pingtung County",
        "district_en": "Checheng Township"
    },
    {
        "zip_code": 945,
        "city_zh": "屏東縣",
        "district_zh": "牡丹鄉",
        "city_en": "Pingtung County",
        "district_en": "Mudan Township"
    },
    {
        "zip_code": 946,
        "city_zh": "屏東縣",
        "district_zh": "恆春鎮",
        "city_en": "Pingtung County",
        "district_en": "Hengchun Township"
    },
    {
        "zip_code": 947,
        "city_zh": "屏東縣",
        "district_zh": "滿州鄉",
        "city_en": "Pingtung County",
        "district_en": "Manzhou Township"
    }
]