[
    {
        "zip_code": 400,
        "city_zh": "臺中市",
        "district_zh": "中區",
        "city_en": "Taichung City",
        "district_en": "Central Dist."
    },
    {
        "zip_code": 401,
        "city_zh": "臺中市",
        "district_zh": "東區",
        "city_en": "Taichung City",
        "district_en": "East Dist."
    },
    {
        "zip_code": 402,
        "city_zh": "臺中市",
        "district_zh": "南區",
        "city_en": "Taichung City",
        "district_en": "South Dist."
    },
    {
        "zip_code": 403,
        "city_zh": "臺中市",
        "district_zh": "西區",
        "city_en": "Taichung City",
        "district_en": "West Dist."
    },
    {
        "zip_code": 404,
        "city_zh": "臺中市",
        "district_zh": "北區",
        "city_en": "Taichung City",
        "district_en": "North Dist."
    },
    {
        "zip_code": 406,
        "city_zh": "臺中市",
        "district_zh": "北屯區",
        "city_en": "Taichung City",
        "district_en": "Beitun Dist."
    },
    {
        "zip_code": 407,
        "city_zh": "臺中市",
        "district_zh": "西屯區",
        "city_en": "Taichung City",
        "district_en": "Xitun Dist."
    },
    {
        "zip_code": 408,
        "city_zh": "臺中市",
        "district_zh": "南屯區",
        "city_en": "Taichung City",
        "district_en": "Nantun Dist."
    },
    {
        "zip_code": 411,
        "city_zh": "臺中市",
        "district_zh": "太平區",
        "city_en": "Taichung City",
        "district_en": "Taiping Dist."
    },
    {
        "zip_code": 412,
        "city_zh": "臺中市",
        "district_zh": "大里區",
        "city_en": "Taichung City",
        "district_en": "Dali Dist."
    },
    {
        "zip_code": 413,
        "city_zh": "臺中市",
        "district_zh": "霧峰區",
        "city_en": "Taichung City",
        "district_en": "Wufeng Dist."
    },
    {
        "zip_code": 414,
        "city_zh": "臺中市",
        "district_zh": "烏日區",
        "city_en": "Taichung City",
        "district_en": "Wuri Dist."
    },
    {
        "zip_code": 420,
        "city_zh": "臺中市",
        "district_zh": "豐原區",
        "city_en": "Taichung City",
        "district_en": "Fengyuan Dist."
    },
    {
        "zip_code": 421,
        "city_zh": "臺中市",
        "district_zh": "后里區",
        "city_en": "Taichung City",
        "district_en": "Houli Dist."
    },
    {
        "zip_code": 422,
        "city_zh": "臺中市",
        "district_zh": "石岡區",
        "city_en": "Taichung City",
        "district_en": "Shigang Dist."
    },
    {
        "zip_code": 423,
        "city_zh": "臺中市",
        "district_zh": "東勢區",
        "city_en": "Taichung City",
        "district_en": "Dongshi Dist."
    },
    {
        "zip_code": 424,
        "city_zh": "臺中市",
        "district_zh": "和平區",
        "city_en": "Taichung City",
        "district_en": "Heping Dist."
    },
    {
        "zip_code": 426,
        "city_zh": "臺中市",
        "district_zh": "新社區",
        "city_en": "Taichung City",
        "district_en": "Xinshe Dist."
    },
    {
        "zip_code": 427,
        "city_zh": "臺中市",
        "district_zh": "潭子區",
        "city_en": "Taichung City",
        "district_en": "Tanzi Dist."
    },
    {
        "zip_code": 428,
        "city_zh": "臺中市",
        "district_zh": "大雅區",
        "city_en": "Taichung City",
        "district_en": "Daya Dist."
    },
    {
        "zip_code": 429,
        "city_zh": "臺中市",
        "district_zh": "神岡區",
        "city_en": "Taichung City",
        "district_en": "Shengang Dist."
    },
    {
        "zip_code": 432,
        "city_zh": "臺中市",
        "district_zh": "大肚區",
        "city_en": "Taichung City",
        "district_en": "Dadu Dist."
    },
    {
        "zip_code": 433,
        "city_zh": "臺中市",
        "district_zh": "沙鹿區",
        "city_en": "Taichung City",
        "district_en": "Shalu Dist."
    },
    {
        "zip_code": 434,
        "city_zh": "臺中市",
        "district_zh": "龍井區",
        "city_en": "Taichung City",
        "district_en": "Longjing Dist."
    },
    {
        "zip_code": 435,
        "city_zh": "臺中市",
        "district_zh": "梧棲區",
        "city_en": "Taichung City",
        "district_en": "Wuqi Dist."
    },
    {
        "zip_code": 436,
        "city_zh": "臺中市",
        "district_zh": "清水區",
        "city_en": "Taichung City",
        "district_en": "Qingshui Dist."
    },
    {
        "zip_code": 437,
        "city_zh": "臺中市",
        "district_zh": "大甲區",
        "city_en": "Taichung City",
        "district_en": "Dajia Dist."
    },
    {
        "zip_code": 438,
        "city_zh": "臺中市",
        "district_zh": "外埔區",
        "city_en": "Taichung City",
        "district_en": "Waipu Dist."
    },
    {
        "zip_code": 439,
        "city_zh": "臺中市",
        "district_zh": "大安區",
        "city_en": "Taichung City",
        "district_en": "Da’an Dist."
    }
]